[{"OBJECT_NAME":"ONEWEB-0035","OBJECT_ID":"2020-008N","EPOCH":"2026-03-13T07:57:00.594432","MEAN_MOTION":13.10370028,"ECCENTRICITY":0.0001978,"INCLINATION":87.8771,"RA_OF_ASC_NODE":55.3627,"ARG_OF_PERICENTER":87.2457,"MEAN_ANOMALY":272.8897,"EPHEMERIS_TYPE":0,"CLASSIFICATION_TYPE":"U","NORAD_CAT_ID":45143,"ELEMENT_SET_NO":999,"REV_AT_EPOCH":29538,"BSTAR":0.0014999166,"MEAN_MOTION_DOT":5.36e-6,"MEAN_MOTION_DDOT":0},{"OBJECT_NAME":"ONEWEB-0036","OBJECT_ID":"2020-008P","EPOCH":"2026-03-13T00:39:12.724704","MEAN_MOTION":13.09813284,"ECCENTRICITY":0.00016066,"INCLINATION":87.8781,"RA_OF_ASC_NODE":55.3959,"ARG_OF_PERICENTER":82.1886,"MEAN_ANOMALY":277.9423,"EPHEMERIS_TYPE":0,"CLASSIFICATION_TYPE":"U","NORAD_CAT_ID":45144,"ELEMENT_SET_NO":999,"REV_AT_EPOCH":29577,"BSTAR":0.0012744317,"MEAN_MOTION_DOT":4.54e-6,"MEAN_MOTION_DDOT":0},{"OBJECT_NAME":"ONEWEB-0038","OBJECT_ID":"2020-008Q","EPOCH":"2026-03-13T08:09:47.343456","MEAN_MOTION":13.114196,"ECCENTRICITY":0.00024429,"INCLINATION":87.888,"RA_OF_ASC_NODE":40.1202,"ARG_OF_PERICENTER":126.082,"MEAN_ANOMALY":234.0535,"EPHEMERIS_TYPE":0,"CLASSIFICATION_TYPE":"U","NORAD_CAT_ID":45145,"ELEMENT_SET_NO":999,"REV_AT_EPOCH":29776,"BSTAR":0.00034555381,"MEAN_MOTION_DOT":1.35e-6,"MEAN_MOTION_DDOT":0},{"OBJECT_NAME":"ONEWEB-0039","OBJECT_ID":"2020-008R","EPOCH":"2026-03-13T09:07:30.484416","MEAN_MOTION":13.10372119,"ECCENTRICITY":0.00012429,"INCLINATION":87.8786,"RA_OF_ASC_NODE":55.3382,"ARG_OF_PERICENTER":89.8133,"MEAN_ANOMALY":270.3137,"EPHEMERIS_TYPE":0,"CLASSIFICATION_TYPE":"U","NORAD_CAT_ID":45146,"ELEMENT_SET_NO":999,"REV_AT_EPOCH":29561,"BSTAR":-0.00036366372,"MEAN_MOTION_DOT":-1.14e-6,"MEAN_MOTION_DDOT":0},{"OBJECT_NAME":"ONEWEB-0040","OBJECT_ID":"2020-008S","EPOCH":"2026-03-13T08:57:56.538720","MEAN_MOTION":13.10375865,"ECCENTRICITY":0.00018154,"INCLINATION":87.8779,"RA_OF_ASC_NODE":55.3554,"ARG_OF_PERICENTER":87.8204,"MEAN_ANOMALY":272.3131,"EPHEMERIS_TYPE":0,"CLASSIFICATION_TYPE":"U","NORAD_CAT_ID":45147,"ELEMENT_SET_NO":999,"REV_AT_EPOCH":29531,"BSTAR":-0.00093592136,"MEAN_MOTION_DOT":-3.14e-6,"MEAN_MOTION_DDOT":0},{"OBJECT_NAME":"ONEWEB-0043","OBJECT_ID":"2020-008U","EPOCH":"2026-03-13T09:00:19.626624","MEAN_MOTION":13.10375339,"ECCENTRICITY":0.00012767,"INCLINATION":87.8785,"RA_OF_ASC_NODE":55.338,"ARG_OF_PERICENTER":85.6653,"MEAN_ANOMALY":274.462,"EPHEMERIS_TYPE":0,"CLASSIFICATION_TYPE":"U","NORAD_CAT_ID":45149,"ELEMENT_SET_NO":999,"REV_AT_EPOCH":29563,"BSTAR":-0.00056546551,"MEAN_MOTION_DOT":-1.85e-6,"MEAN_MOTION_DDOT":0},{"OBJECT_NAME":"ONEWEB-0044","OBJECT_ID":"2020-008V","EPOCH":"2026-03-13T07:51:00.289152","MEAN_MOTION":13.10381977,"ECCENTRICITY":0.00017034,"INCLINATION":87.8783,"RA_OF_ASC_NODE":55.3443,"ARG_OF_PERICENTER":91.5373,"MEAN_ANOMALY":268.595,"EPHEMERIS_TYPE":0,"CLASSIFICATION_TYPE":"U","NORAD_CAT_ID":45150,"ELEMENT_SET_NO":999,"REV_AT_EPOCH":29592,"BSTAR":0.0036277384,"MEAN_MOTION_DOT":1.279e-5,"MEAN_MOTION_DDOT":0},{"OBJECT_NAME":"ONEWEB-0045","OBJECT_ID":"2020-008W","EPOCH":"2026-03-13T08:02:16.460736","MEAN_MOTION":13.11418249,"ECCENTRICITY":0.00017387,"INCLINATION":87.8877,"RA_OF_ASC_NODE":40.1084,"ARG_OF_PERICENTER":84.1356,"MEAN_ANOMALY":275.997,"EPHEMERIS_TYPE":0,"CLASSIFICATION_TYPE":"U","NORAD_CAT_ID":45151,"ELEMENT_SET_NO":999,"REV_AT_EPOCH":29784,"BSTAR":-0.00029439606,"MEAN_MOTION_DOT":-9.2e-7,"MEAN_MOTION_DDOT":0},{"OBJECT_NAME":"ONEWEB-0047","OBJECT_ID":"2020-008X","EPOCH":"2026-03-13T09:31:25.809600","MEAN_MOTION":13.10373534,"ECCENTRICITY":0.00019963,"INCLINATION":87.878,"RA_OF_ASC_NODE":55.3322,"ARG_OF_PERICENTER":89.1488,"MEAN_ANOMALY":270.9868,"EPHEMERIS_TYPE":0,"CLASSIFICATION_TYPE":"U","NORAD_CAT_ID":45152,"ELEMENT_SET_NO":999,"REV_AT_EPOCH":29565,"BSTAR":0.0020643683,"MEAN_MOTION_DOT":7.33e-6,"MEAN_MOTION_DDOT":0},{"OBJECT_NAME":"ONEWEB-0048","OBJECT_ID":"2020-008Y","EPOCH":"2026-03-13T09:24:15.372576","MEAN_MOTION":13.10374433,"ECCENTRICITY":0.00019036,"INCLINATION":87.8774,"RA_OF_ASC_NODE":55.3604,"ARG_OF_PERICENTER":86.7611,"MEAN_ANOMALY":273.3734,"EPHEMERIS_TYPE":0,"CLASSIFICATION_TYPE":"U","NORAD_CAT_ID":45153,"ELEMENT_SET_NO":999,"REV_AT_EPOCH":29526,"BSTAR":0.0015681556,"MEAN_MOTION_DOT":5.6e-6,"MEAN_MOTION_DDOT":0},{"OBJECT_NAME":"ONEWEB-0049","OBJECT_ID":"2020-008Z","EPOCH":"2026-03-13T07:38:53.119968","MEAN_MOTION":13.1037315,"ECCENTRICITY":0.00017262,"INCLINATION":87.8776,"RA_OF_ASC_NODE":55.3627,"ARG_OF_PERICENTER":70.9963,"MEAN_ANOMALY":289.1351,"EPHEMERIS_TYPE":0,"CLASSIFICATION_TYPE":"U","NORAD_CAT_ID":45154,"ELEMENT_SET_NO":999,"REV_AT_EPOCH":29547,"BSTAR":0.0018581516,"MEAN_MOTION_DOT":6.61e-6,"MEAN_MOTION_DDOT":0},{"OBJECT_NAME":"ONEWEB-0051","OBJECT_ID":"2020-008AA","EPOCH":"2026-03-13T07:59:49.758720","MEAN_MOTION":13.11418802,"ECCENTRICITY":0.00018365,"INCLINATION":87.8877,"RA_OF_ASC_NODE":40.1215,"ARG_OF_PERICENTER":82.6788,"MEAN_ANOMALY":277.4549,"EPHEMERIS_TYPE":0,"CLASSIFICATION_TYPE":"U","NORAD_CAT_ID":45155,"ELEMENT_SET_NO":999,"REV_AT_EPOCH":29852,"BSTAR":-0.00047482912,"MEAN_MOTION_DOT":-1.56e-6,"MEAN_MOTION_DDOT":0},{"OBJECT_NAME":"ONEWEB-0052","OBJECT_ID":"2020-008AB","EPOCH":"2026-03-13T09:32:12.191712","MEAN_MOTION":13.09875636,"ECCENTRICITY":0.00016573,"INCLINATION":87.8787,"RA_OF_ASC_NODE":55.3207,"ARG_OF_PERICENTER":71.66,"MEAN_ANOMALY":288.4708,"EPHEMERIS_TYPE":0,"CLASSIFICATION_TYPE":"U","NORAD_CAT_ID":45156,"ELEMENT_SET_NO":999,"REV_AT_EPOCH":29539,"BSTAR":0.0023268322,"MEAN_MOTION_DOT":8.19e-6,"MEAN_MOTION_DDOT":0},{"OBJECT_NAME":"ONEWEB-0053","OBJECT_ID":"2020-008AC","EPOCH":"2026-03-12T23:45:46.789632","MEAN_MOTION":13.10375911,"ECCENTRICITY":0.00013639,"INCLINATION":87.8779,"RA_OF_ASC_NODE":55.4377,"ARG_OF_PERICENTER":78.8154,"MEAN_ANOMALY":281.3126,"EPHEMERIS_TYPE":0,"CLASSIFICATION_TYPE":"U","NORAD_CAT_ID":45157,"ELEMENT_SET_NO":999,"REV_AT_EPOCH":29531,"BSTAR":-0.00098199663,"MEAN_MOTION_DOT":-3.3e-6,"MEAN_MOTION_DDOT":0},{"OBJECT_NAME":"ONEWEB-0054","OBJECT_ID":"2020-008AD","EPOCH":"2026-03-13T07:55:49.008576","MEAN_MOTION":13.10371386,"ECCENTRICITY":0.00018645,"INCLINATION":87.878,"RA_OF_ASC_NODE":55.3447,"ARG_OF_PERICENTER":83.1477,"MEAN_ANOMALY":276.9862,"EPHEMERIS_TYPE":0,"CLASSIFICATION_TYPE":"U","NORAD_CAT_ID":45158,"ELEMENT_SET_NO":999,"REV_AT_EPOCH":29547,"BSTAR":0.0016336949,"MEAN_MOTION_DOT":5.83e-6,"MEAN_MOTION_DDOT":0},{"OBJECT_NAME":"ONEWEB-0056","OBJECT_ID":"2020-008AE","EPOCH":"2026-03-13T09:18:16.689024","MEAN_MOTION":13.10375473,"ECCENTRICITY":0.00018764,"INCLINATION":87.8787,"RA_OF_ASC_NODE":55.3329,"ARG_OF_PERICENTER":79.319,"MEAN_ANOMALY":280.8149,"EPHEMERIS_TYPE":0,"CLASSIFICATION_TYPE":"U","NORAD_CAT_ID":45159,"ELEMENT_SET_NO":999,"REV_AT_EPOCH":29563,"BSTAR":0.0011111601,"MEAN_MOTION_DOT":4.01e-6,"MEAN_MOTION_DDOT":0},{"OBJECT_NAME":"ONEWEB-0057","OBJECT_ID":"2020-008AF","EPOCH":"2026-03-13T09:29:14.900640","MEAN_MOTION":13.10377414,"ECCENTRICITY":0.00015243,"INCLINATION":87.878,"RA_OF_ASC_NODE":55.3409,"ARG_OF_PERICENTER":83.0681,"MEAN_ANOMALY":277.062,"EPHEMERIS_TYPE":0,"CLASSIFICATION_TYPE":"U","NORAD_CAT_ID":45160,"ELEMENT_SET_NO":999,"REV_AT_EPOCH":29580,"BSTAR":0.0019273959,"MEAN_MOTION_DOT":6.86e-6,"MEAN_MOTION_DDOT":0}]
