ONEWEB-0035             
1 45143U 20008N   26072.33125688  .00000536  00000+0  14999-2 0  9997
2 45143  87.8771  55.3627 0001978  87.2457 272.8897 13.10370028295388
ONEWEB-0036             
1 45144U 20008P   26072.02723061  .00000454  00000+0  12744-2 0  9998
2 45144  87.8781  55.3959 0001606  82.1886 277.9423 13.09813284295774
ONEWEB-0038             
1 45145U 20008Q   26072.34013129  .00000135  00000+0  34555-3 0  9992
2 45145  87.8880  40.1202 0002442 126.0820 234.0535 13.11419600297769
ONEWEB-0039             
1 45146U 20008R   26072.38021394 -.00000114  00000+0 -36366-3 0  9991
2 45146  87.8786  55.3382 0001242  89.8133 270.3137 13.10372119295617
ONEWEB-0040             
1 45147U 20008S   26072.37357105 -.00000314  00000+0 -93592-3 0  9999
2 45147  87.8779  55.3554 0001815  87.8204 272.3131 13.10375865295318
ONEWEB-0043             
1 45149U 20008U   26072.37522716 -.00000185  00000+0 -56547-3 0  9998
2 45149  87.8785  55.3380 0001276  85.6653 274.4620 13.10375339295636
ONEWEB-0044             
1 45150U 20008V   26072.32708668  .00001279  00000+0  36277-2 0  9997
2 45150  87.8783  55.3443 0001703  91.5373 268.5950 13.10381977295923
ONEWEB-0045             
1 45151U 20008W   26072.33491274 -.00000092  00000+0 -29440-3 0  9990
2 45151  87.8877  40.1084 0001738  84.1356 275.9970 13.11418249297849
ONEWEB-0047             
1 45152U 20008X   26072.39682650  .00000733  00000+0  20644-2 0  9993
2 45152  87.8780  55.3322 0001996  89.1488 270.9868 13.10373534295657
ONEWEB-0048             
1 45153U 20008Y   26072.39184459  .00000560  00000+0  15682-2 0  9992
2 45153  87.8774  55.3604 0001903  86.7611 273.3734 13.10374433295268
ONEWEB-0049             
1 45154U 20008Z   26072.31867037  .00000661  00000+0  18582-2 0  9999
2 45154  87.8776  55.3627 0001726  70.9963 289.1351 13.10373150295472
ONEWEB-0051             
1 45155U 20008AA  26072.33321480 -.00000156  00000+0 -47483-3 0  9993
2 45155  87.8877  40.1215 0001836  82.6788 277.4549 13.11418802298520
ONEWEB-0052             
1 45156U 20008AB  26072.39736333  .00000819  00000+0  23268-2 0  9995
2 45156  87.8787  55.3207 0001657  71.6600 288.4708 13.09875636295392
ONEWEB-0053             
1 45157U 20008AC  26071.99012488 -.00000330  00000+0 -98200-3 0  9998
2 45157  87.8779  55.4377 0001363  78.8154 281.3126 13.10375911295311
ONEWEB-0054             
1 45158U 20008AD  26072.33042834  .00000583  00000+0  16337-2 0  9994
2 45158  87.8780  55.3447 0001864  83.1477 276.9862 13.10371386295470
ONEWEB-0056             
1 45159U 20008AE  26072.38769316  .00000401  00000+0  11112-2 0  9996
2 45159  87.8787  55.3329 0001876  79.3190 280.8149 13.10375473295630
ONEWEB-0057             
1 45160U 20008AF  26072.39531135  .00000686  00000+0  19274-2 0  9997
2 45160  87.8780  55.3409 0001524  83.0681 277.0620 13.10377414295809
